[
   {
      "name": "STARLINK-1106",
      "line1": "1 44923U 20001K   21092.57919570  .00000651  00000-0  62566-4 0  9993",
      "line2": "2 44923  53.0586 156.5817 0001024  98.0910 262.0195 15.06400265 68220",
      "bstar": 6.2566,
      "inc": 53.0586,
      "raan": 156.5817,
      "ecc": 0.0001024,
      "argp": 98.091,
      "nu": 262.0195,
      "mmo": 15.06400265,
      "a": 6925.34775
   },
   {
      "name": "STARLINK-1111",
      "line1": "1 44924U 20001L   21092.89987653  .00001053  00000-0  89535-4 0  9998",
      "line2": "2 44924  53.0580 155.1428 0001117 128.3947 231.7143 15.06399339 68278",
      "bstar": 8.9535,
      "inc": 53.058,
      "raan": 155.1428,
      "ecc": 0.0001117,
      "argp": 128.3947,
      "nu": 231.7143,
      "mmo": 15.06399339,
      "a": 6925.35058
   },
   {
      "name": "STARLINK-1112",
      "line1": "1 44925U 20001M   21092.64923215  .00000854  00000-0  76214-4 0  9994",
      "line2": "2 44925  53.0599 156.2657 0000736 116.6011 243.5054 15.06398028 68235",
      "bstar": 7.6214,
      "inc": 53.0599,
      "raan": 156.2657,
      "ecc": 7.36e-05,
      "argp": 116.6011,
      "nu": 243.5054,
      "mmo": 15.06398028,
      "a": 6925.3546
   },
   {
      "name": "STARLINK-1113",
      "line1": "1 44926U 20001N   21092.88603541  .00000335  00000-0  42158-4 0  9992",
      "line2": "2 44926  53.0006 155.2308 0001153 120.6679 239.4423 15.05584561 69019",
      "bstar": 4.2158,
      "inc": 53.0006,
      "raan": 155.2308,
      "ecc": 0.0001153,
      "argp": 120.6679,
      "nu": 239.4423,
      "mmo": 15.05584561,
      "a": 6927.84889
   },
   {
      "name": "STARLINK-1114",
      "line1": "1 44927U 20001P   21092.85932877  .00000744  00000-0  68807-4 0  9990",
      "line2": "2 44927  53.0596 155.3247 0001008 120.8840 239.2248 15.06395782 68274",
      "bstar": 6.8807,
      "inc": 53.0596,
      "raan": 155.3247,
      "ecc": 0.0001008,
      "argp": 120.884,
      "nu": 239.2248,
      "mmo": 15.06395782,
      "a": 6925.36149
   },
   {
      "name": "STARLINK-1119",
      "line1": "1 44928U 20001Q   21092.85563918  .00000618  00000-0  60369-4 0  9992",
      "line2": "2 44928  53.0590 155.3418 0001134 111.2515 248.8595 15.06405979 68273",
      "bstar": 6.0369,
      "inc": 53.059,
      "raan": 155.3418,
      "ecc": 0.0001134,
      "argp": 111.2515,
      "nu": 248.8595,
      "mmo": 15.06405979,
      "a": 6925.33023
   },
   {
      "name": "STARLINK-1121",
      "line1": "1 44929U 20001R   21092.90724401  .00000791  00000-0  71967-4 0  9993",
      "line2": "2 44929  53.0597 155.1063 0000872  97.6399 262.4689 15.06398907 68278",
      "bstar": 7.1967,
      "inc": 53.0597,
      "raan": 155.1063,
      "ecc": 8.72e-05,
      "argp": 97.6399,
      "nu": 262.4689,
      "mmo": 15.06398907,
      "a": 6925.35191
   },
   {
      "name": "STARLINK-1123",
      "line1": "1 44930U 20001S   21092.87406835  .00000755  00000-0  69545-4 0  9998",
      "line2": "2 44930  53.0595 155.2554 0001115 122.1199 237.9898 15.06398480 68272",
      "bstar": 6.9545,
      "inc": 53.0595,
      "raan": 155.2554,
      "ecc": 0.0001115,
      "argp": 122.1199,
      "nu": 237.9898,
      "mmo": 15.0639848,
      "a": 6925.35322
   },
   {
      "name": "STARLINK-1128",
      "line1": "1 44931U 20001T   21092.58657042  .00000953  00000-0  82877-4 0  9998",
      "line2": "2 44931  53.0594 156.5507 0001007 108.2256 251.8843 15.06392444 68979",
      "bstar": 8.2877,
      "inc": 53.0594,
      "raan": 156.5507,
      "ecc": 0.0001007,
      "argp": 108.2256,
      "nu": 251.8843,
      "mmo": 15.06392444,
      "a": 6925.37172
   },
   {
      "name": "STARLINK-1130 (DARKSAT)",
      "line1": "1 44932U 20001U   21092.86301785  .00000776  00000-0  71005-4 0  9994",
      "line2": "2 44932  53.0608 155.3044 0001191 134.4715 225.6371 15.06391945 69504",
      "bstar": 7.1005,
      "inc": 53.0608,
      "raan": 155.3044,
      "ecc": 0.0001191,
      "argp": 134.4715,
      "nu": 225.6371,
      "mmo": 15.06391945,
      "a": 6925.37325
   },
   {
      "name": "STARLINK-1144",
      "line1": "1 44933U 20001V   21092.88881952  .00000777  00000-0  71070-4 0  9999",
      "line2": "2 44933  53.0572 155.1950 0000984 131.4988 228.6085 15.06392399 69562",
      "bstar": 7.107,
      "inc": 53.0572,
      "raan": 155.195,
      "ecc": 9.84e-05,
      "argp": 131.4988,
      "nu": 228.6085,
      "mmo": 15.06392399,
      "a": 6925.37185
   },
   {
      "name": "STARLINK-1071",
      "line1": "1 44934U 20001W   21092.83537401  .00001650  00000-0  12963-3 0  9998",
      "line2": "2 44934  53.0576 135.4371 0000645 133.5805 226.5238 15.06403779 68549",
      "bstar": 12.963,
      "inc": 53.0576,
      "raan": 135.4371,
      "ecc": 6.45e-05,
      "argp": 133.5805,
      "nu": 226.5238,
      "mmo": 15.06403779,
      "a": 6925.33698
   },
   {
      "name": "STARLINK-1072",
      "line1": "1 44935U 20001X   21092.80220025  .00001078  00000-0  91204-4 0  9997",
      "line2": "2 44935  53.0575 135.5865 0000809 125.5797 234.5267 15.06400831 68548",
      "bstar": 9.1204,
      "inc": 53.0575,
      "raan": 135.5865,
      "ecc": 8.09e-05,
      "argp": 125.5797,
      "nu": 234.5267,
      "mmo": 15.06400831,
      "a": 6925.34601
   },
   {
      "name": "STARLINK-1078",
      "line1": "1 44936U 20001Y   21092.50637539  .00000076  00000-0  23963-4 0  9991",
      "line2": "2 44936  53.0697 136.8724 0001340  73.5791 286.5346 15.06397978 68495",
      "bstar": 2.3963,
      "inc": 53.0697,
      "raan": 136.8724,
      "ecc": 0.000134,
      "argp": 73.5791,
      "nu": 286.5346,
      "mmo": 15.06397978,
      "a": 6925.35476
   },
   {
      "name": "STARLINK-1079",
      "line1": "1 44937U 20001Z   21092.81325839 -.00000647  00000-0 -24564-4 0  9997",
      "line2": "2 44937  53.0572 135.5305 0000869 109.3768 250.7315 15.06396244 68546",
      "bstar": -2.4564,
      "inc": 53.0572,
      "raan": 135.5305,
      "ecc": 8.69e-05,
      "argp": 109.3768,
      "nu": 250.7315,
      "mmo": 15.06396244,
      "a": 6925.36007
   },
   {
      "name": "STARLINK-1082",
      "line1": "1 44938U 20001AA  21092.84643082  .00000759  00000-0  69864-4 0  9998",
      "line2": "2 44938  53.0577 135.3903 0000896 115.7730 244.3351 15.06395151 68549",
      "bstar": 6.9864,
      "inc": 53.0577,
      "raan": 135.3903,
      "ecc": 8.96e-05,
      "argp": 115.773,
      "nu": 244.3351,
      "mmo": 15.06395151,
      "a": 6925.36342
   },
   {
      "name": "STARLINK-1083",
      "line1": "1 44939U 20001AB  21092.85381520  .00001043  00000-0  88909-4 0  9994",
      "line2": "2 44939  53.0571 135.3534 0001018 115.2471 244.8624 15.06390303 68540",
      "bstar": 8.8909,
      "inc": 53.0571,
      "raan": 135.3534,
      "ecc": 0.0001018,
      "argp": 115.2471,
      "nu": 244.8624,
      "mmo": 15.06390303,
      "a": 6925.37828
   },
   {
      "name": "STARLINK-1091",
      "line1": "1 44940U 20001AC  21092.59948403  .00000506  00000-0  52840-4 0  9994",
      "line2": "2 44940  53.0577 136.4975 0000783 120.8072 239.2995 15.06397645 68507",
      "bstar": 5.284,
      "inc": 53.0577,
      "raan": 136.4975,
      "ecc": 7.83e-05,
      "argp": 120.8072,
      "nu": 239.2995,
      "mmo": 15.06397645,
      "a": 6925.35578
   },
   {
      "name": "STARLINK-1094",
      "line1": "1 44941U 20001AD  21092.88697904 -.00000962  00000-0 -45746-4 0  9999",
      "line2": "2 44941  53.0591 135.2051 0000610 107.0990 253.0066 15.06393155 68551",
      "bstar": -4.5746,
      "inc": 53.0591,
      "raan": 135.2051,
      "ecc": 6.1e-05,
      "argp": 107.099,
      "nu": 253.0066,
      "mmo": 15.06393155,
      "a": 6925.36954
   },
   {
      "name": "STARLINK-1096",
      "line1": "1 44942U 20001AE  21092.80589656 -.00000846  00000-0 -37905-4 0  9995",
      "line2": "2 44942  53.0570 135.5685 0000951  92.7731 267.3367 15.06391357 68549",
      "bstar": -3.7905,
      "inc": 53.057,
      "raan": 135.5685,
      "ecc": 9.51e-05,
      "argp": 92.7731,
      "nu": 267.3367,
      "mmo": 15.06391357,
      "a": 6925.37505
   },
   {
      "name": "STARLINK-1100",
      "line1": "1 44943U 20001AF  21092.85012165 -.00001344  00000-0 -71343-4 0  9995",
      "line2": "2 44943  53.0659 135.3445 0001161  98.6673 261.4447 15.06391749 68543",
      "bstar": -7.1343,
      "inc": 53.0659,
      "raan": 135.3445,
      "ecc": 0.0001161,
      "argp": 98.6673,
      "nu": 261.4447,
      "mmo": 15.06391749,
      "a": 6925.37385
   },
   {
      "name": "STARLINK-1108",
      "line1": "1 44944U 20001AG  21092.83171004  .00001641  00000-0  12906-3 0  9999",
      "line2": "2 44944  53.0564 135.4521 0000809 136.4749 223.6304 15.06387691 68541",
      "bstar": 12.906,
      "inc": 53.0564,
      "raan": 135.4521,
      "ecc": 8.09e-05,
      "argp": 136.4749,
      "nu": 223.6304,
      "mmo": 15.06387691,
      "a": 6925.38628
   },
   {
      "name": "STARLINK-1109",
      "line1": "1 44945U 20001AH  21092.59578331 -.00001208  00000-0 -62240-4 0  9995",
      "line2": "2 44945  53.0573 136.5123 0000890 119.8555 240.2523 15.06391480 68507",
      "bstar": -6.224,
      "inc": 53.0573,
      "raan": 136.5123,
      "ecc": 8.9e-05,
      "argp": 119.8555,
      "nu": 240.2523,
      "mmo": 15.0639148,
      "a": 6925.37467
   },
   {
      "name": "STARLINK-1110",
      "line1": "1 44946U 20001AJ  21092.82473447  .00001870  00000-0  14234-3 0  9996",
      "line2": "2 44946  53.0027 134.3814 0000239 219.7288 140.3683 15.06942604 68557",
      "bstar": 14.234,
      "inc": 53.0027,
      "raan": 134.3814,
      "ecc": 2.39e-05,
      "argp": 219.7288,
      "nu": 140.3683,
      "mmo": 15.06942604,
      "a": 6923.68605
   }
]